{
"type": "FeatureCollection",
"name": "pedro_aguirre_cerda",
"crs": { "type": "name", "properties": { "name": "urn:ogc:def:crs:OGC:1.3:CRS84" } },
"features": [
{ "type": "Feature", "properties": { "comuna": "Pedro Aguirre Cerda", "codigo_comuna": "13121" }, "geometry": { "type": "Polygon", "coordinates": [ [ [ -70.695378421252613, -33.50199686266599 ], [ -70.695336683612737, -33.501915830993511 ], [ -70.694959811621374, -33.501174395763826 ], [ -70.694533015852429, -33.500355261358436 ], [ -70.694481765429146, -33.500250038574819 ], [ -70.694341263371228, -33.499978502883756 ], [ -70.694237660104065, -33.499777107416932 ], [ -70.694048956262009, -33.499410446666516 ], [ -70.693849893240511, -33.499023648230114 ], [ -70.693712494020431, -33.498732042779295 ], [ -70.693540982540611, -33.498370516327768 ], [ -70.693340690389306, -33.497956889546685 ], [ -70.693117102980267, -33.497480351245784 ], [ -70.692914330705307, -33.497048862018183 ], [ -70.692724277431665, -33.496648814273179 ], [ -70.692422756819852, -33.496008702122822 ], [ -70.692123597287448, -33.495379889905635 ], [ -70.691821130912828, -33.494727260973413 ], [ -70.69147099415332, -33.493966122319669 ], [ -70.691274324662643, -33.49353275737225 ], [ -70.690850091491839, -33.492453373407315 ], [ -70.690769242973147, -33.492249753903707 ], [ -70.690263708995786, -33.491118507325069 ], [ -70.689736827868401, -33.489943169443649 ], [ -70.689467136639237, -33.489341268011046 ], [ -70.689134050263931, -33.4884602481428 ], [ -70.68893182039902, -33.487994243963307 ], [ -70.688439389698331, -33.486831313931717 ], [ -70.688107096758159, -33.486054649318554 ], [ -70.687733985040524, -33.485169735012228 ], [ -70.687161106280755, -33.483674323825412 ], [ -70.686778224971746, -33.482725116153127 ], [ -70.686572045750054, -33.482224465554204 ], [ -70.686333968213731, -33.481620456218188 ], [ -70.68625692207516, -33.481412063037581 ], [ -70.686177429074348, -33.481219939351583 ], [ -70.686000000872426, -33.480770000297071 ], [ -70.685764987185109, -33.480148894602728 ], [ -70.685690022046472, -33.479947839584646 ], [ -70.685533375052586, -33.47947220835475 ], [ -70.685513322893257, -33.479201424618836 ], [ -70.685504217730411, -33.479084154801235 ], [ -70.685536655292893, -33.478818385362267 ], [ -70.685580865588761, -33.478572496780927 ], [ -70.685641341677297, -33.478284393017759 ], [ -70.685748290901259, -33.477925983706967 ], [ -70.685797776343477, -33.47771724656058 ], [ -70.685892561161765, -33.477318917861851 ], [ -70.685911540203193, -33.477240396575333 ], [ -70.686006209475821, -33.47695373743214 ], [ -70.686131155588726, -33.476760197921635 ], [ -70.686292990699741, -33.476530843035462 ], [ -70.686327252418181, -33.476476928937956 ], [ -70.686440161305356, -33.4763675434302 ], [ -70.68654141225413, -33.476267760295407 ], [ -70.686421794504241, -33.476225184962651 ], [ -70.68624495152828, -33.47617963219691 ], [ -70.685851189738813, -33.476091932590847 ], [ -70.685404031524087, -33.476025717765268 ], [ -70.684894568477148, -33.476006160690957 ], [ -70.684583737268397, -33.476054767751847 ], [ -70.6838126616029, -33.476287867240103 ], [ -70.683305015554765, -33.476406431610521 ], [ -70.682926268529258, -33.476476716010936 ], [ -70.680703609149177, -33.476510324242639 ], [ -70.680681806653411, -33.476510422460549 ], [ -70.680701766000581, -33.476839802277063 ], [ -70.680813231750903, -33.478409508786179 ], [ -70.678785192620424, -33.478444159702562 ], [ -70.677089855312246, -33.478456381027407 ], [ -70.675339213755365, -33.478480063021593 ], [ -70.673682576324083, -33.478506028990161 ], [ -70.671585795689978, -33.478520017378315 ], [ -70.671588131206988, -33.476862864668071 ], [ -70.671586057487048, -33.475902959662974 ], [ -70.669422661172177, -33.475905116758078 ], [ -70.668324305073696, -33.475893969335296 ], [ -70.665392585751491, -33.475824580383993 ], [ -70.664056727098185, -33.475797629679683 ], [ -70.661840701102989, -33.475818314403384 ], [ -70.660497448226124, -33.475902049702697 ], [ -70.659501170302391, -33.476017558620001 ], [ -70.658057288529605, -33.476161947652592 ], [ -70.656751003928377, -33.47626232475627 ], [ -70.655739748615431, -33.476359126906722 ], [ -70.654921785942307, -33.476437425990298 ], [ -70.655022036821052, -33.476647238337662 ], [ -70.655187760491273, -33.477007230011175 ], [ -70.655349825763153, -33.477354385990267 ], [ -70.655543731544839, -33.477848574687023 ], [ -70.655763812552649, -33.478461240622096 ], [ -70.655891151797789, -33.478778794889514 ], [ -70.655979791318231, -33.47894797577522 ], [ -70.656156690027501, -33.479266298567275 ], [ -70.656614643176709, -33.480079075752855 ], [ -70.656717521762857, -33.480278131412646 ], [ -70.657089293823361, -33.481050539955646 ], [ -70.657356510322373, -33.481625348567654 ], [ -70.657681277995053, -33.482321315167376 ], [ -70.657902336559928, -33.482789605620496 ], [ -70.658382969782465, -33.483804410087615 ], [ -70.658485366616688, -33.484022558360955 ], [ -70.658834304485779, -33.484775463306129 ], [ -70.658993159697829, -33.485116929143793 ], [ -70.659126794185596, -33.485405047233797 ], [ -70.659666829470396, -33.486546703582924 ], [ -70.660484628461745, -33.488290696774683 ], [ -70.661024269233053, -33.489409685104796 ], [ -70.661250000411954, -33.489896993680837 ], [ -70.661851191260752, -33.49118098395568 ], [ -70.662173653742016, -33.491886512293945 ], [ -70.66253129048809, -33.492644058736808 ], [ -70.662804439072929, -33.493227365357612 ], [ -70.663168008846299, -33.493996761013996 ], [ -70.663551004308488, -33.494813615951621 ], [ -70.663651640430984, -33.495012694048107 ], [ -70.663950282667315, -33.495662462735261 ], [ -70.664205865825608, -33.496219754261439 ], [ -70.664606901967346, -33.497085277440519 ], [ -70.664802946013026, -33.497507361109513 ], [ -70.664966326435248, -33.497859494929116 ], [ -70.665303465336265, -33.4985850972094 ], [ -70.665600322139142, -33.499214604224512 ], [ -70.665748809337245, -33.499532338927061 ], [ -70.66596862623777, -33.500005401370842 ], [ -70.666086941413482, -33.500249573603121 ], [ -70.666589999531126, -33.501310001415298 ], [ -70.666964110471113, -33.502119894001538 ], [ -70.667173475517217, -33.502581879588114 ], [ -70.667332516973019, -33.502914741302604 ], [ -70.667693055510895, -33.503655291285462 ], [ -70.667790349032458, -33.503857272775967 ], [ -70.668132999895008, -33.504615241647407 ], [ -70.668357210813554, -33.505075055347142 ], [ -70.668606683494218, -33.505611003871394 ], [ -70.66888932115323, -33.506209436202589 ], [ -70.669163991283867, -33.506807975140632 ], [ -70.669632848479225, -33.507788527338022 ], [ -70.66988914223829, -33.508319548021419 ], [ -70.670117184756123, -33.508803226885775 ], [ -70.670298773329932, -33.509181593054016 ], [ -70.670395014242018, -33.509387403688457 ], [ -70.670572158490756, -33.509771554930424 ], [ -70.670656441041899, -33.509947939941874 ], [ -70.670840678777978, -33.510345357202944 ], [ -70.671029621965999, -33.510750346298543 ], [ -70.672090835690128, -33.510338878986545 ], [ -70.672695731720097, -33.510078459649804 ], [ -70.673300459459156, -33.509809489599434 ], [ -70.673758734309459, -33.509621592050962 ], [ -70.675041745199607, -33.509061265730459 ], [ -70.675456765220716, -33.508880358870236 ], [ -70.676370330307506, -33.508483207554335 ], [ -70.676514635388713, -33.508423535649534 ], [ -70.676661738326459, -33.508376653078081 ], [ -70.676860195299156, -33.508346176134474 ], [ -70.678056267077636, -33.508302824361301 ], [ -70.678269846414892, -33.50826722721277 ], [ -70.678510433325698, -33.508172045326887 ], [ -70.679178659507926, -33.507889359103231 ], [ -70.679846674711854, -33.507595983926684 ], [ -70.680592987415508, -33.507260927055022 ], [ -70.681063780753433, -33.507062142960301 ], [ -70.681509061281616, -33.506863704373536 ], [ -70.682007541391698, -33.506645301631195 ], [ -70.682867974271076, -33.506274477589017 ], [ -70.683077854879713, -33.506175428692174 ], [ -70.683368998030957, -33.506056035804036 ], [ -70.683695773512866, -33.50593188239322 ], [ -70.6839545787427, -33.50585568078931 ], [ -70.684465854825504, -33.50575204999474 ], [ -70.684921305833157, -33.50559967973804 ], [ -70.686184188437679, -33.505164794107365 ], [ -70.687502451895639, -33.50471929802324 ], [ -70.68802452815352, -33.504534752942966 ], [ -70.688960566052998, -33.504218035027918 ], [ -70.689608596942762, -33.503980864043669 ], [ -70.690168637531315, -33.503780829348877 ], [ -70.690764430778529, -33.503582441425088 ], [ -70.691172568939862, -33.50344433059194 ], [ -70.692880805910619, -33.502848089344575 ], [ -70.694158994844898, -33.502404857598201 ], [ -70.694591362197187, -33.502267685737301 ], [ -70.695378421252613, -33.50199686266599 ] ] ] } }
]
}
